{
  "type": "FeatureCollection",
  "features": [
    {
      "type": "Feature",
      "properties": {
        "norad_id": 36744,
        "name": "COMS 1",
        "group": "weather",
        "lat": 4.323624396744915,
        "lon": 162.0438965341438,
        "alt_km": 35786.35217274597,
        "timestamp": "2025-12-14T20:40:31.409984+00:00",
        "meta_object_name": "COMS 1",
        "meta_object_id": "2010-032A",
        "meta_epoch": "2025-12-14T05:28:05.649888",
        "meta_mean_motion": 1.00272291,
        "meta_eccentricity": 8.454e-05,
        "meta_inclination": 4.3447,
        "meta_ra_of_asc_node": 77.982,
        "meta_arg_of_pericenter": 188.3791,
        "meta_mean_anomaly": 26.9801,
        "meta_ephemeris_type": 0,
        "meta_classification_type": "U",
        "meta_norad_cat_id": 36744,
        "meta_element_set_no": 999,
        "meta_rev_at_epoch": 4923,
        "meta_bstar": 0,
        "meta_mean_motion_dot": -3.28e-06,
        "meta_mean_motion_ddot": 0,
        "tle_line1": "1 36744U 10032A   25348.22784317 -.00000328  00000+0  00000+0 0  9998",
        "tle_line2": "2 36744   4.3447  77.9820 0000845 188.3791  26.9801  1.00272291 49233"
      },
      "geometry": {
        "type": "Point",
        "coordinates": [
          162.0438965341438,
          4.323624396744915
        ]
      }
    },
    {
      "type": "Feature",
      "properties": {
        "norad_id": 37214,
        "name": "FENGYUN 3B",
        "group": "weather",
        "lat": 34.86994308317444,
        "lon": 22.519330547782438,
        "alt_km": 829.1244556260044,
        "timestamp": "2025-12-14T20:40:31.409996+00:00",
        "meta_object_name": "FENGYUN 3B",
        "meta_object_id": "2010-059A",
        "meta_epoch": "2025-12-14T08:40:36.291360",
        "meta_mean_motion": 14.14790124,
        "meta_eccentricity": 0.00219987,
        "meta_inclination": 98.9912,
        "meta_ra_of_asc_node": 28.3501,
        "meta_arg_of_pericenter": 353.3021,
        "meta_mean_anomaly": 17.0645,
        "meta_ephemeris_type": 0,
        "meta_classification_type": "U",
        "meta_norad_cat_id": 37214,
        "meta_element_set_no": 999,
        "meta_rev_at_epoch": 78129,
        "meta_bstar": 2.9594923e-05,
        "meta_mean_motion_dot": 1.2e-07,
        "meta_mean_motion_ddot": 0,
        "tle_line1": "1 37214U 10059A   25348.36153115  .00000012  00000+0  29595-4 0  9995",
        "tle_line2": "2 37214  98.9912  28.3501 0021998 353.3021  17.0645 14.14790124781295"
      },
      "geometry": {
        "type": "Point",
        "coordinates": [
          22.519330547782438,
          34.86994308317444
        ]
      }
    },
    {
      "type": "Feature",
      "properties": {
        "norad_id": 37849,
        "name": "SUOMI NPP",
        "group": "weather",
        "lat": -80.97492776372913,
        "lon": 2.77399719581204,
        "alt_km": 835.8374615309276,
        "timestamp": "2025-12-14T20:40:31.410007+00:00",
        "meta_object_name": "SUOMI NPP",
        "meta_object_id": "2011-061A",
        "meta_epoch": "2025-12-14T07:33:21.051936",
        "meta_mean_motion": 14.1951479,
        "meta_eccentricity": 0.00022986,
        "meta_inclination": 98.7774,
        "meta_ra_of_asc_node": 285.6422,
        "meta_arg_of_pericenter": 117.3378,
        "meta_mean_anomaly": 242.8032,
        "meta_ephemeris_type": 0,
        "meta_classification_type": "U",
        "meta_norad_cat_id": 37849,
        "meta_element_set_no": 999,
        "meta_rev_at_epoch": 73221,
        "meta_bstar": 8.6493077e-05,
        "meta_mean_motion_dot": 1.38e-06,
        "meta_mean_motion_ddot": 0,
        "tle_line1": "1 37849U 11061A   25348.31482699  .00000138  00000+0  86493-4 0  9999",
        "tle_line2": "2 37849  98.7774 285.6422 0002298 117.3378 242.8032 14.19514790732212"
      },
      "geometry": {
        "type": "Point",
        "coordinates": [
          2.77399719581204,
          -80.97492776372913
        ]
      }
    },
    {
      "type": "Feature",
      "properties": {
        "norad_id": 38552,
        "name": "METEOSAT-10 (MSG-3)",
        "group": "weather",
        "lat": -1.9444660399916516,
        "lon": 34.17453614833294,
        "alt_km": 35784.41019258136,
        "timestamp": "2025-12-14T20:40:31.410020+00:00",
        "meta_object_name": "METEOSAT-10 (MSG-3)",
        "meta_object_id": "2012-035B",
        "meta_epoch": "2025-12-14T01:26:06.688896",
        "meta_mean_motion": 1.00275422,
        "meta_eccentricity": 7.419e-05,
        "meta_inclination": 4.232,
        "meta_ra_of_asc_node": 61.7218,
        "meta_arg_of_pericenter": 258.8887,
        "meta_mean_anomaly": 144.0945,
        "meta_ephemeris_type": 0,
        "meta_classification_type": "U",
        "meta_norad_cat_id": 38552,
        "meta_element_set_no": 999,
        "meta_rev_at_epoch": 4900,
        "meta_bstar": 0,
        "meta_mean_motion_dot": 1e-07,
        "meta_mean_motion_ddot": 0,
        "tle_line1": "1 38552U 12035B   25348.05979964  .00000010  00000+0  00000+0 0  9994",
        "tle_line2": "2 38552   4.2320  61.7218 0000741 258.8887 144.0945  1.00275422 49002"
      },
      "geometry": {
        "type": "Point",
        "coordinates": [
          34.17453614833294,
          -1.9444660399916516
        ]
      }
    },
    {
      "type": "Feature",
      "properties": {
        "norad_id": 38771,
        "name": "METOP-B",
        "group": "weather",
        "lat": 40.602515852197655,
        "lon": -133.69163924682852,
        "alt_km": 815.2053986937526,
        "timestamp": "2025-12-14T20:40:31.410031+00:00",
        "meta_object_name": "METOP-B",
        "meta_object_id": "2012-049A",
        "meta_epoch": "2025-12-14T08:11:56.450112",
        "meta_mean_motion": 14.21409033,
        "meta_eccentricity": 0.00029737,
        "meta_inclination": 98.6799,
        "meta_ra_of_asc_node": 38.2733,
        "meta_arg_of_pericenter": 140.6559,
        "meta_mean_anomaly": 219.4835,
        "meta_ephemeris_type": 0,
        "meta_classification_type": "U",
        "meta_norad_cat_id": 38771,
        "meta_element_set_no": 999,
        "meta_rev_at_epoch": 68700,
        "meta_bstar": 0.00010203208,
        "meta_mean_motion_dot": 1.79e-06,
        "meta_mean_motion_ddot": 0,
        "tle_line1": "1 38771U 12049A   25348.34162558  .00000179  00000+0  10203-3 0  9993",
        "tle_line2": "2 38771  98.6799  38.2733 0002973 140.6559 219.4835 14.21409033687003"
      },
      "geometry": {
        "type": "Point",
        "coordinates": [
          -133.69163924682852,
          40.602515852197655
        ]
      }
    },
    {
      "type": "Feature",
      "properties": {
        "norad_id": 39216,
        "name": "INSAT-3D",
        "group": "weather",
        "lat": 1.4181957010604527,
        "lon": 163.39409983588814,
        "alt_km": 35786.35191063835,
        "timestamp": "2025-12-14T20:40:31.410043+00:00",
        "meta_object_name": "INSAT-3D",
        "meta_object_id": "2013-038B",
        "meta_epoch": "2025-12-14T07:11:10.777056",
        "meta_mean_motion": 1.00269358,
        "meta_eccentricity": 0.00013643,
        "meta_inclination": 1.4489,
        "meta_ra_of_asc_node": 84.9786,
        "meta_arg_of_pericenter": 165.302,
        "meta_mean_anomaly": 70.2558,
        "meta_ephemeris_type": 0,
        "meta_classification_type": "U",
        "meta_norad_cat_id": 39216,
        "meta_element_set_no": 999,
        "meta_rev_at_epoch": 4522,
        "meta_bstar": 0,
        "meta_mean_motion_dot": -3.22e-06,
        "meta_mean_motion_ddot": 0,
        "tle_line1": "1 39216U 13038B   25348.29943029 -.00000322  00000+0  00000+0 0  9992",
        "tle_line2": "2 39216   1.4489  84.9786 0001364 165.3020  70.2558  1.00269358 45226"
      },
      "geometry": {
        "type": "Point",
        "coordinates": [
          163.39409983588814,
          1.4181957010604527
        ]
      }
    },
    {
      "type": "Feature",
      "properties": {
        "norad_id": 39260,
        "name": "FENGYUN 3C",
        "group": "weather",
        "lat": -17.695732760167033,
        "lon": -30.835647751216555,
        "alt_km": 854.0438518662031,
        "timestamp": "2025-12-14T20:40:31.410055+00:00",
        "meta_object_name": "FENGYUN 3C",
        "meta_object_id": "2013-052A",
        "meta_epoch": "2025-12-14T07:11:24.177696",
        "meta_mean_motion": 14.15696873,
        "meta_eccentricity": 0.00143713,
        "meta_inclination": 98.4764,
        "meta_ra_of_asc_node": 325.9028,
        "meta_arg_of_pericenter": 191.4115,
        "meta_mean_anomaly": 168.6736,
        "meta_ephemeris_type": 0,
        "meta_classification_type": "U",
        "meta_norad_cat_id": 39260,
        "meta_element_set_no": 999,
        "meta_rev_at_epoch": 63240,
        "meta_bstar": 9.7465985e-05,
        "meta_mean_motion_dot": 1.5e-06,
        "meta_mean_motion_ddot": 0,
        "tle_line1": "1 39260U 13052A   25348.29958539  .00000150  00000+0  97466-4 0  9994",
        "tle_line2": "2 39260  98.4764 325.9028 0014371 191.4115 168.6736 14.15696873632409"
      },
      "geometry": {
        "type": "Point",
        "coordinates": [
          -30.835647751216555,
          -17.695732760167033
        ]
      }
    }
  ]
}